{
"type": "FeatureCollection",
"name": "geofence_imbl_buffer_3nm",
"crs": { "type": "name", "properties": { "name": "urn:ogc:def:crs:OGC:1.3:CRS84" } },
"features": [
{ "type": "Feature", "properties": { "zone": "IMBL approach buffer 3NM" }, "geometry": { "type": "Polygon", "coordinates": [ [ [ 79.483333333333334, 9.102906808872609 ], [ 79.483333333333334, 9.212993417335781 ], [ 79.46319234906062, 9.349332387797272 ], [ 79.330924838825624, 9.648975451107406 ], [ 79.329208491870602, 9.653427491179157 ], [ 79.327924327675802, 9.658022861674691 ], [ 79.327084040614793, 9.662719714378959 ], [ 79.32669528284832, 9.667475276918708 ], [ 79.326761594639052, 9.672246242273527 ], [ 79.327282372111824, 9.676989163155676 ], [ 79.328252872752913, 9.681660847667297 ], [ 79.3296642585982, 9.686218752631882 ], [ 79.331503676717006, 9.690621371018098 ], [ 79.333754376258668, 9.694828609927841 ], [ 79.336395860995822, 9.698802155706343 ], [ 79.543062527662485, 9.979635489039675 ], [ 79.546022317075355, 9.983284952543103 ], [ 79.549311621522619, 9.986640457495351 ], [ 79.552901391265706, 9.989672369503133 ], [ 79.556759922984298, 9.992353912008481 ], [ 79.560853139766536, 9.994661402767933 ], [ 79.565144892061866, 9.996574463004036 ], [ 79.569597276938453, 9.998076197382041 ], [ 80.033804947455749, 10.130706960386984 ], [ 80.061429192229994, 10.141756658296682 ], [ 80.131822552223625, 10.182428377404111 ], [ 80.73872229538361, 10.591462176903716 ], [ 80.743346208562969, 10.594228455024266 ], [ 81.018346208562974, 10.739228455024266 ], [ 81.023397506754677, 10.741542859775802 ], [ 81.913575895686051, 11.090958675991857 ], [ 82.385461313836245, 11.31194726970304 ], [ 82.389397481627725, 11.313589744657042 ], [ 82.393459307890211, 11.314890785882575 ], [ 82.397617236922244, 11.31584092640996 ], [ 83.357617236922238, 11.492507593076626 ], [ 83.362480732717771, 11.493157804800431 ], [ 83.367384541345501, 11.493328179627181 ], [ 83.372281436447651, 11.493017076754159 ], [ 83.377124258247463, 11.492227492272098 ], [ 83.381866367723646, 11.490967030311189 ], [ 83.386462095769645, 11.489247829809157 ], [ 83.390867183012105, 11.487086447606647 ], [ 83.395039206052815, 11.484503698995798 ], [ 83.398937986029225, 11.481524457257608 ], [ 83.402525975558873, 11.478177414118637 ], [ 83.405768620341206, 11.47449480343399 ], [ 83.408634691934338, 11.470512090757682 ], [ 83.41109658850209, 11.466267631789957 ], [ 83.413130600634702, 11.461802302990932 ], [ 83.414717139683432, 11.457159107917938 ], [ 83.415840926409956, 11.452382763077759 ], [ 83.41649113813375, 11.447519267282217 ], [ 83.416661512960502, 11.442615458654485 ], [ 83.416350410087489, 11.437718563552339 ], [ 83.415560825605425, 11.432875741752531 ], [ 83.414300363644514, 11.428133632276348 ], [ 83.412581163142491, 11.423537904230344 ], [ 83.410419780939975, 11.419132816987883 ], [ 83.407837032329127, 11.414960793947177 ], [ 83.404857790590938, 11.411062013970769 ], [ 83.401510747451965, 11.407474024441118 ], [ 83.397828136767316, 11.404231379658793 ], [ 83.393845424091012, 11.401365308065657 ], [ 83.389600965123279, 11.398903411497903 ], [ 83.385135636324264, 11.39686939936529 ], [ 83.380492441251263, 11.395282860316559 ], [ 83.375716096411082, 11.394159073590041 ], [ 82.422044606152781, 11.218657028507783 ], [ 81.954538686163758, 10.999719396963627 ], [ 81.951602493245332, 10.998457140224199 ], [ 81.06252587238707, 10.649473793719087 ], [ 80.792373716297249, 10.507029929599002 ], [ 80.186277704616387, 10.098537823096285 ], [ 80.183347213227066, 10.096706746337773 ], [ 80.108347213227063, 10.053373413004438 ], [ 80.10190286715104, 10.050242832122402 ], [ 80.068569533817708, 10.03690949878907 ], [ 80.068474114804772, 10.0368766640464 ], [ 80.068382204914187, 10.036835004949479 ], [ 80.06615446066894, 10.036078445281651 ], [ 80.063929784931645, 10.035312909639261 ], [ 80.063831607019793, 10.035289585703637 ], [ 80.063736056394873, 10.035257135951293 ], [ 79.613485065444607, 9.906613995679788 ], [ 79.434105168497183, 9.662859861521383 ], [ 79.557408494507712, 9.383524548892595 ], [ 79.559032930136254, 9.379346986412177 ], [ 79.560276714947008, 9.375040732967051 ], [ 79.561129853477553, 9.370640395021303 ], [ 79.582796520144214, 9.223973728354636 ], [ 79.583333333333329, 9.216666666666667 ], [ 79.583333333333329, 9.1 ], [ 79.583311276097987, 9.099551014660179 ], [ 79.583325263352151, 9.099101705508483 ], [ 79.58319093765931, 9.097101469467574 ], [ 79.583092569666945, 9.095099142983521 ], [ 79.583026610384167, 9.094654481617926 ], [ 79.582996490287698, 9.094205965021988 ], [ 79.571329823621028, 8.994205965021989 ], [ 79.570525153548019, 8.989376993849953 ], [ 79.569252097554696, 8.984649861003863 ], [ 79.535918764221364, 8.881316527670529 ], [ 79.534320343705915, 8.877040284498971 ], [ 79.532338553328202, 8.872927656299709 ], [ 79.529989914247125, 8.869012927921734 ], [ 79.527294005848944, 8.865328734425841 ], [ 79.342294005848942, 8.63532873442584 ], [ 79.338975451491919, 8.631600451969762 ], [ 79.335301717823171, 8.628221609856853 ], [ 79.33130941417636, 8.625225878780043 ], [ 79.327038324485073, 8.622643111670559 ], [ 79.243281072239171, 8.577543052768915 ], [ 79.110529545513629, 8.481578093690207 ], [ 78.96987981389772, 8.345465450190947 ], [ 78.944292792333485, 8.194953558636639 ], [ 78.943864786315899, 8.192739341720129 ], [ 78.810531452982573, 7.577739341720129 ], [ 78.80894392213051, 7.572058779090359 ], [ 78.80669849903245, 7.566604686947046 ], [ 78.691698499032441, 7.328271353613713 ], [ 78.690847496425519, 7.32658944080507 ], [ 78.247514163092191, 6.489922774138404 ], [ 78.246535011883509, 6.488161623608977 ], [ 77.888201678550175, 5.873161623608977 ], [ 77.885115805548878, 5.868488364826654 ], [ 77.216782472215542, 4.970155031493321 ], [ 77.213663985180801, 4.966366706632223 ], [ 77.210189193743986, 4.962902288772084 ], [ 77.206391562046136, 4.959795142150742 ], [ 77.202307663356507, 4.957075190288701 ], [ 77.19797682785196, 4.954768627809266 ], [ 77.193440763845871, 4.952897668170011 ], [ 77.188743156114299, 4.951480329735033 ], [ 77.183929245187656, 4.950530262248257 ], [ 77.179045391659741, 4.950056615378938 ], [ 77.174138629709788, 4.950063950605352 ], [ 77.169256214137704, 4.950552197285258 ], [ 77.164445165274429, 4.951516653336226 ], [ 77.159751816150518, 4.952948030519258 ], [ 77.155221366283683, 4.954832543889614 ], [ 77.150897446382714, 4.957152044553355 ], [ 77.146821698159982, 4.959884194451122 ], [ 77.143033373298891, 4.963002681485856 ], [ 77.139568955438747, 4.966477472922672 ], [ 77.136461808817401, 4.97027510462052 ], [ 77.133741856955368, 4.974359003310154 ], [ 77.131435294475935, 4.978689838814704 ], [ 77.129564334836672, 4.983225902820789 ], [ 77.128146996401696, 4.987923510552363 ], [ 77.127196928914913, 4.992737421478999 ], [ 77.126723282045603, 4.997621275006922 ], [ 77.126730617272017, 5.002528036956871 ], [ 77.127218863951924, 5.00741045252896 ], [ 77.12818332000289, 5.012221501392229 ], [ 77.129614697185914, 5.01691485051614 ], [ 77.131499210556271, 5.021445300382982 ], [ 77.133818711220016, 5.025769220283942 ], [ 77.136550861117783, 5.029844968506679 ], [ 77.803210196937997, 5.925928215407165 ], [ 78.159624331626944, 6.537634334943078 ], [ 78.60204448118067, 7.372577624702364 ], [ 78.714058160299274, 7.604721916209023 ], [ 78.845896236767913, 8.212825043920683 ], [ 78.874040540999843, 8.378379774696693 ], [ 78.875197936028925, 8.38352714036105 ], [ 78.87689126934967, 8.388523895188021 ], [ 78.879101687431827, 8.393314405436209 ], [ 78.881804579536606, 8.397845333686121 ], [ 78.884969851731938, 8.402066232697642 ], [ 78.888562261957532, 8.405930107088329 ], [ 79.043562261957533, 8.555930107088329 ], [ 79.049040983512398, 8.560521083918964 ], [ 79.187374316845734, 8.660521083918963 ], [ 79.192961675514923, 8.664023554996106 ], [ 79.270716504688068, 8.705891539935493 ], [ 79.44358355695654, 8.920807334647646 ], [ 79.472572858863401, 9.010674170558945 ], [ 79.483333333333334, 9.102906808872609 ] ] ] } }
]
}
