{
"type": "FeatureCollection",
"name": "geofence_imbl_buffer_5nm",
"crs": { "type": "name", "properties": { "name": "urn:ogc:def:crs:OGC:1.3:CRS84" } },
"features": [
{ "type": "Feature", "properties": { "zone": "IMBL approach buffer 5NM" }, "geometry": { "type": "Polygon", "coordinates": [ [ [ 79.45, 9.104844681454303 ], [ 79.45, 9.210544584448556 ], [ 79.430876137323253, 9.339998424106565 ], [ 79.300430286931601, 9.635514640734565 ], [ 79.297569708673237, 9.642934707520812 ], [ 79.295429435015222, 9.650593658346704 ], [ 79.294028956580206, 9.658421746187148 ], [ 79.293381026969428, 9.666347683753399 ], [ 79.293491546620643, 9.674299292678095 ], [ 79.294359509075264, 9.682204160815008 ], [ 79.295977010143744, 9.689990301667709 ], [ 79.29832931988588, 9.697586809942019 ], [ 79.301395016750575, 9.704924507252379 ], [ 79.305146182653331, 9.711936572101949 ], [ 79.309548657215245, 9.718559148399459 ], [ 79.516215323881909, 9.999392481732791 ], [ 79.521148306236697, 10.005474920905169 ], [ 79.526630480315475, 10.011067429158917 ], [ 79.532613429887292, 10.016120615838553 ], [ 79.539044316084954, 10.020589853347468 ], [ 79.545866344055355, 10.024435671279891 ], [ 79.553019264547558, 10.02762410500673 ], [ 79.56043990600854, 10.030126995636735 ], [ 80.023008245759613, 10.162289378422756 ], [ 80.046826431494424, 10.17181665271668 ], [ 80.114148698150572, 10.210713962340236 ], [ 80.720092714528249, 10.619103628172859 ], [ 80.727799236493823, 10.623714091707109 ], [ 81.002799236493829, 10.768714091707109 ], [ 81.011218066813342, 10.772571432959669 ], [ 81.900404270587913, 11.121597793319779 ], [ 82.371324411949303, 11.342134338393956 ], [ 82.377884691601764, 11.344871796650624 ], [ 82.384654402039246, 11.347040198693179 ], [ 82.391584283759286, 11.34862376623882 ], [ 83.35158428375928, 11.525290432905486 ], [ 83.359690110085182, 11.526374119111829 ], [ 83.367863124464733, 11.526658077156412 ], [ 83.376024616301649, 11.526139572368043 ], [ 83.384095985968003, 11.524823598231274 ], [ 83.391999501761632, 11.522722828296427 ], [ 83.399659048504972, 11.519857494126374 ], [ 83.407000860575749, 11.516255190455521 ], [ 83.413954232310246, 11.511950609437442 ], [ 83.420452198937596, 11.50698520654046 ], [ 83.426432181487016, 11.501406801308839 ], [ 83.431836589457561, 11.495269116834429 ], [ 83.436613375446129, 11.488631262373914 ], [ 83.440716536392372, 11.481557164094372 ], [ 83.444106556613406, 11.474114949429332 ], [ 83.446750788361285, 11.466376290974342 ], [ 83.448623766238811, 11.458415716240708 ], [ 83.449707452445153, 11.450309889914807 ], [ 83.449991410489744, 11.442136875535253 ], [ 83.44947290570137, 11.433975383698344 ], [ 83.448156931564597, 11.425904014031996 ], [ 83.446056161629755, 11.418000498238356 ], [ 83.443190827459702, 11.410340951495016 ], [ 83.439588523788842, 11.402999139424249 ], [ 83.435283942770766, 11.39604576768974 ], [ 83.430318539873781, 11.389547801062392 ], [ 83.424740134642164, 11.383567818512976 ], [ 83.418602450167754, 11.378163410542433 ], [ 83.411964595707246, 11.373386624553872 ], [ 83.404890497427701, 11.369283463607616 ], [ 83.397448282762653, 11.365893443386595 ], [ 83.38970962430767, 11.363249211638712 ], [ 83.38174904957404, 11.361376233761181 ], [ 82.432296565810177, 11.186650603068525 ], [ 81.968675588050701, 10.969532328272711 ], [ 81.963781933186667, 10.967428567040331 ], [ 81.076432009534045, 10.619122989531823 ], [ 80.8095117493842, 10.478383215998278 ], [ 80.204907285471748, 10.070896371827143 ], [ 80.200023133156222, 10.067844577229621 ], [ 80.125023133156219, 10.024511243896287 ], [ 80.114282556362838, 10.019293609092893 ], [ 80.080949223029506, 10.005960275759561 ], [ 80.080790191341308, 10.005905551188448 ], [ 80.080637008190308, 10.005836119360243 ], [ 80.076924101114543, 10.004575186580407 ], [ 80.073216308219401, 10.003299293843213 ], [ 80.073052678366324, 10.003260420617179 ], [ 80.072893427324786, 10.003206337696598 ], [ 79.633586220185478, 9.877689992799652 ], [ 79.472397503050857, 9.658655324757845 ], [ 79.587903046401735, 9.396985359265436 ], [ 79.590610439115977, 9.390022755131406 ], [ 79.592683413800557, 9.382845666056197 ], [ 79.59410531135147, 9.375511769479949 ], [ 79.615771978018131, 9.228845102813283 ], [ 79.61666666666666, 9.216666666666667 ], [ 79.61666666666666, 9.1 ], [ 79.616629904607763, 9.099251691100239 ], [ 79.616653216698026, 9.09850284251414 ], [ 79.616429340543306, 9.095169115779402 ], [ 79.61626539388935, 9.091831904972537 ], [ 79.616155461751376, 9.091090802696545 ], [ 79.616105261590604, 9.090343275036648 ], [ 79.604438594923934, 8.990343275036649 ], [ 79.603097478135595, 8.982294989749922 ], [ 79.600975718146714, 8.974416435006438 ], [ 79.567642384813382, 8.871083101673104 ], [ 79.564978350620962, 8.863956029720507 ], [ 79.561675366658122, 8.857101649388403 ], [ 79.55776096818964, 8.85057710209178 ], [ 79.553267787526025, 8.844436779598624 ], [ 79.368267787526023, 8.614436779598623 ], [ 79.362736863597647, 8.608222975505162 ], [ 79.356613974149738, 8.602591571983648 ], [ 79.349960134738396, 8.597598686855633 ], [ 79.342841651919585, 8.593294075006487 ], [ 79.261024009287482, 8.549238421281505 ], [ 79.131993686967164, 8.455963489483684 ], [ 79.000910800940645, 8.329109083651568 ], [ 78.977154653889144, 8.189367042172176 ], [ 78.976441310526511, 8.18567668064466 ], [ 78.843107977193185, 7.570676680644659 ], [ 78.840462092439722, 7.56120907626171 ], [ 78.836719720609636, 7.552118922689521 ], [ 78.721719720609627, 7.313785589356188 ], [ 78.72030138293141, 7.310982401341784 ], [ 78.276968049598082, 6.474315734675118 ], [ 78.275336130916955, 6.471380483792738 ], [ 77.917002797583621, 5.856380483792738 ], [ 77.911859675914798, 5.848591719155535 ], [ 77.243526342581461, 4.950258385822202 ], [ 77.238328864190237, 4.943944511053704 ], [ 77.232537545128878, 4.938170481286807 ], [ 77.22620815896579, 4.932991903584571 ], [ 77.219401661149746, 4.928458650481168 ], [ 77.212183601975482, 4.92461437968211 ], [ 77.204623495298677, 4.921496113616685 ], [ 77.196794149079395, 4.919133882891722 ], [ 77.188770964201666, 4.917550437080427 ], [ 77.180631208321799, 4.916761025631564 ], [ 77.172453271738547, 4.91677325100892 ], [ 77.164315912451727, 4.91758699547543 ], [ 77.156297497679617, 4.919194422227043 ], [ 77.148475249139764, 4.921580050865431 ], [ 77.140924499361688, 4.92472090648269 ], [ 77.13371796619343, 4.928586740922258 ], [ 77.126925052488858, 4.933140324085205 ], [ 77.120611177720363, 4.938337802476426 ], [ 77.114837147953466, 4.944129121537786 ], [ 77.109658570251227, 4.950458507700866 ], [ 77.105125317147824, 4.957265005516923 ], [ 77.101281046348774, 4.964483064691174 ], [ 77.098162780283346, 4.972043171367981 ], [ 77.09580054955839, 4.979872517587272 ], [ 77.094217103747084, 4.987895702464999 ], [ 77.093427692298221, 4.99603545834487 ], [ 77.093439917675582, 5.004213394928119 ], [ 77.094253662142094, 5.012350754214934 ], [ 77.095861088893699, 5.02036916898705 ], [ 77.098246717532092, 5.0281914175269 ], [ 77.101387573149353, 5.03574216730497 ], [ 77.105253407588918, 5.042948700473237 ], [ 77.109806990751864, 5.049741614177798 ], [ 77.775350328230019, 5.944324803456413 ], [ 78.130484997156131, 6.553835002683098 ], [ 78.572296357523186, 7.38762937450364 ], [ 78.682319156054319, 7.615647638126113 ], [ 78.813160394613234, 8.219152850979116 ], [ 78.841178679444184, 8.383966291161157 ], [ 78.843107671159331, 8.392545233935083 ], [ 78.845929893360548, 8.4008731586467 ], [ 78.849613923497486, 8.408857342393679 ], [ 78.854118743672132, 8.416408889476866 ], [ 78.859394197331, 8.423443721162734 ], [ 78.865381547706988, 8.429883511813882 ], [ 79.02038154770699, 8.579883511813883 ], [ 79.029512750298437, 8.587535139864942 ], [ 79.167846083631773, 8.687535139864941 ], [ 79.177158348080411, 8.693372591660179 ], [ 79.248971952257889, 8.732041455448055 ], [ 79.413750372705351, 8.936901113301651 ], [ 79.439843653661242, 9.01779028426491 ], [ 79.45, 9.104844681454303 ] ] ] } }
]
}
