{
"type": "FeatureCollection",
"name": "geofence_imbl_buffer_1nm",
"crs": { "type": "name", "properties": { "name": "urn:ogc:def:crs:OGC:1.3:CRS84" } },
"features": [
{ "type": "Feature", "properties": { "zone": "IMBL approach buffer 1NM" }, "geometry": { "type": "Polygon", "coordinates": [ [ [ 79.516666666666666, 9.100968936290908 ], [ 79.516666666666666, 9.215442250223006 ], [ 79.495508560797987, 9.35866635148798 ], [ 79.361419390719647, 9.662436261480247 ], [ 79.360847275067982, 9.663920274837499 ], [ 79.360419220336368, 9.665452065002677 ], [ 79.360139124649379, 9.667017682570766 ], [ 79.360009538727212, 9.668602870084015 ], [ 79.360031642657461, 9.670193191868956 ], [ 79.360205235148385, 9.671774165496338 ], [ 79.360528735362081, 9.673331393666878 ], [ 79.360999197310505, 9.674850695321739 ], [ 79.36161233668345, 9.676318234783812 ], [ 79.362362569864004, 9.677720647753725 ], [ 79.363243064776384, 9.679045163013226 ], [ 79.569909731443047, 9.959878496346558 ], [ 79.570896327913999, 9.961094984181035 ], [ 79.571992762729764, 9.962213485831782 ], [ 79.573189352644121, 9.963224123167709 ], [ 79.574475529883657, 9.964117970669491 ], [ 79.575839935477731, 9.964887134255976 ], [ 79.577270519576174, 9.965524821001344 ], [ 79.578754647868365, 9.966025399127346 ], [ 80.044601649151943, 10.099124542351227 ], [ 80.076031952965536, 10.111696663876664 ], [ 80.149496406296791, 10.154142792468058 ], [ 80.757351876238985, 10.563820725634573 ], [ 80.7588931806321, 10.564742818341422 ], [ 81.033893180632106, 10.709742818341422 ], [ 81.035576946696011, 10.710514286591934 ], [ 81.92674752078419, 11.060319558663933 ], [ 82.399598215723188, 11.281760201012125 ], [ 82.400910271653686, 11.282307692663457 ], [ 82.402264213741176, 11.282741373071969 ], [ 82.403650190085187, 11.283058086581098 ], [ 83.363650190085181, 11.459724753247764 ], [ 83.365271355350359, 11.459941490489033 ], [ 83.366905958226269, 11.459998282097949 ], [ 83.368538256593652, 11.459894581140276 ], [ 83.370152530526923, 11.459631386312921 ], [ 83.37173323368566, 11.459211232325952 ], [ 83.373265143034317, 11.458638165491941 ], [ 83.374733505448475, 11.45791770475777 ], [ 83.376124179795383, 11.457056788554155 ], [ 83.377423773120853, 11.456063707974758 ], [ 83.378619769630731, 11.454948026928435 ], [ 83.379700651224837, 11.453720490033552 ], [ 83.380656008422548, 11.452392919141449 ], [ 83.381476640611808, 11.450978099485541 ], [ 83.382154644656012, 11.449489656552533 ], [ 83.382683491005579, 11.447941924861535 ], [ 83.383058086581087, 11.446349809914809 ], [ 83.383274823822362, 11.444728644649627 ], [ 83.383331615431274, 11.443094041773717 ], [ 83.383227914473608, 11.441461743406336 ], [ 83.382964719646253, 11.439847469473065 ], [ 83.382544565659273, 11.438266766314339 ], [ 83.381971498825266, 11.436734856965669 ], [ 83.381251038091094, 11.435266494551517 ], [ 83.380390121887487, 11.433875820204614 ], [ 83.379397041308081, 11.432576226879146 ], [ 83.378281360261767, 11.431380230369262 ], [ 83.377053823366879, 11.430299348775153 ], [ 83.375726252474777, 11.429343991577442 ], [ 83.374311432818871, 11.428523359388191 ], [ 83.372822989885861, 11.427845355343985 ], [ 83.371275258194856, 11.427316508994409 ], [ 83.369683143248139, 11.426941913418903 ], [ 82.411792646495371, 11.250663453947039 ], [ 81.940401784276816, 11.029906465654543 ], [ 81.939423053303997, 11.029485713408066 ], [ 81.048619735240152, 10.679824597906368 ], [ 80.77523568321017, 10.535676643199659 ], [ 80.167648123761012, 10.126179274365429 ], [ 80.16667129329791, 10.125568915445925 ], [ 80.091671293297907, 10.08223558211259 ], [ 80.089523177939228, 10.081192055151911 ], [ 80.056189844605896, 10.067858721818579 ], [ 80.056158038268293, 10.067847776904371 ], [ 80.056127401638065, 10.067833890538715 ], [ 80.055384820222258, 10.067581703982526 ], [ 80.054643261643875, 10.067326525435309 ], [ 80.054610535673277, 10.067318750790108 ], [ 80.054578685464961, 10.067307934205987 ], [ 79.59338391070375, 9.935537998559926 ], [ 79.395812833943509, 9.667064398284909 ], [ 79.526913942613689, 9.370063738519754 ], [ 79.527455421156532, 9.368671217692945 ], [ 79.527870016093445, 9.367235799877903 ], [ 79.528154395603636, 9.365769020562656 ], [ 79.549821062270297, 9.219102353895989 ], [ 79.55, 9.216666666666667 ], [ 79.55, 9.1 ], [ 79.549992647588226, 9.099850338220103 ], [ 79.549997310006276, 9.099700568502827 ], [ 79.549952534775329, 9.09903382315575 ], [ 79.549919745444541, 9.098366380994507 ], [ 79.549897759016943, 9.098218160539309 ], [ 79.549887718984792, 9.09806865500733 ], [ 79.538221052318121, 8.99806865500733 ], [ 79.537952828960442, 8.996458997949986 ], [ 79.537528476962677, 8.994883287001288 ], [ 79.504195143629346, 8.891549953667955 ], [ 79.503662336790853, 8.890124539277435 ], [ 79.503001739998282, 8.888753663211013 ], [ 79.502218860304595, 8.887448753751688 ], [ 79.501320224171863, 8.886220689253058 ], [ 79.316320224171861, 8.656220689253058 ], [ 79.315214039386191, 8.654977928434363 ], [ 79.313989461496604, 8.653851647730061 ], [ 79.312658693614338, 8.652853070704458 ], [ 79.311234997050576, 8.65199214833463 ], [ 79.225538135190817, 8.605847684256291 ], [ 79.089065404060122, 8.507192697896762 ], [ 78.938848826854795, 8.361821816730309 ], [ 78.911430930777826, 8.200540075101102 ], [ 78.911288262105302, 8.199802002795598 ], [ 78.777954928771976, 7.584802002795598 ], [ 78.777425751821283, 7.582908481919008 ], [ 78.776677277455263, 7.58109045120457 ], [ 78.661677277455254, 7.342757117871237 ], [ 78.661393609919614, 7.342196480268356 ], [ 78.218060276586286, 6.50552981360169 ], [ 78.217733892850063, 6.504942763425214 ], [ 77.859400559516729, 5.889942763425214 ], [ 77.858371935182959, 5.888385010497774 ], [ 77.190038601849622, 4.99005167716444 ], [ 77.18899910617138, 4.988788902210741 ], [ 77.187840842359108, 4.987634096257361 ], [ 77.186574965126482, 4.986598380716914 ], [ 77.185213665563282, 4.985691730096233 ], [ 77.183770053728423, 4.984922875936422 ], [ 77.182258032393065, 4.984299222723337 ], [ 77.180692163149203, 4.983826776578344 ], [ 77.17908752617366, 4.983510087416086 ], [ 77.177459574997684, 4.983352205126312 ], [ 77.175823987681042, 4.983354650201784 ], [ 77.174196515823681, 4.983517399095086 ], [ 77.172592832869256, 4.983838884445409 ], [ 77.171028383161286, 4.984316010173086 ], [ 77.169518233205665, 4.984944181296538 ], [ 77.168076926572013, 4.985717348184451 ], [ 77.166718343831107, 4.986628064817041 ], [ 77.165455568877405, 4.987667560495285 ], [ 77.164300762924029, 4.988825824307558 ], [ 77.163265047383575, 4.990091701540173 ], [ 77.162358396762897, 4.991453001103385 ], [ 77.161589542603082, 4.992896612938234 ], [ 77.160965889389999, 4.994408634273596 ], [ 77.160493443245002, 4.995974503517455 ], [ 77.160176754082741, 4.997579140492999 ], [ 77.160018871792971, 4.999207091668974 ], [ 77.160021316868452, 5.000842678985624 ], [ 77.160184065761754, 5.002470150842987 ], [ 77.160505551112067, 5.00407383379741 ], [ 77.160982676839751, 5.00563828350538 ], [ 77.161610847963203, 5.007148433460994 ], [ 77.162384014851114, 5.008589740094648 ], [ 77.163294731483703, 5.00994832283556 ], [ 77.831070065645974, 5.907531627357914 ], [ 78.188763666097913, 6.521433667203339 ], [ 78.631792604837997, 7.357525874900788 ], [ 78.7457971645442, 7.593796194291879 ], [ 78.878632078922649, 8.206497236862553 ], [ 78.906902402555502, 8.37279325823223 ], [ 78.907288200898535, 8.374509046787015 ], [ 78.907852645338778, 8.376174631729338 ], [ 78.908589451366169, 8.377771468478734 ], [ 78.909490415401095, 8.379281777895372 ], [ 78.910545506132863, 8.380688744232545 ], [ 78.91174297620806, 8.381976702362776 ], [ 79.066742976208062, 8.531976702362776 ], [ 79.06856921672636, 8.533507027972988 ], [ 79.206902550059695, 8.633507027972987 ], [ 79.20876500294942, 8.634674518332035 ], [ 79.292461057118246, 8.679741624422947 ], [ 79.473416741207714, 8.90471355599364 ], [ 79.505302064065575, 9.003558056852981 ], [ 79.516666666666666, 9.100968936290908 ] ] ] } }
]
}
