{
"type": "FeatureCollection",
"name": "imbl_india_srilanka",
"crs": { "type": "name", "properties": { "name": "urn:ogc:def:crs:OGC:1.3:CRS84" } },
"features": [
{ "type": "Feature", "properties": { "segment": "Palk Strait (Historic Waters)", "source_treaty": "India-Sri Lanka Agreement, 26/28 Jun 1974" }, "geometry": { "type": "LineString", "coordinates": [ [ 80.05, 10.083333333333334 ], [ 79.583333333333329, 9.95 ], [ 79.376666666666665, 9.669166666666667 ], [ 79.51166666666667, 9.363333333333333 ], [ 79.533333333333331, 9.216666666666667 ], [ 79.533333333333331, 9.1 ] ] } },
{ "type": "Feature", "properties": { "segment": "Gulf of Mannar", "source_treaty": "India-Sri Lanka Agreement Art.1, 23 Mar 1976" }, "geometry": { "type": "LineString", "coordinates": [ [ 79.533333333333331, 9.1 ], [ 79.521666666666661, 9.0 ], [ 79.48833333333333, 8.896666666666667 ], [ 79.303333333333327, 8.666666666666666 ], [ 79.216666666666669, 8.62 ], [ 79.078333333333333, 8.52 ], [ 78.923333333333332, 8.37 ], [ 78.895, 8.203333333333333 ], [ 78.76166666666667, 7.588333333333333 ], [ 78.646666666666661, 7.35 ], [ 78.203333333333333, 6.513333333333334 ], [ 77.845, 5.898333333333333 ], [ 77.176666666666662, 5.0 ] ] } },
{ "type": "Feature", "properties": { "segment": "Bay of Bengal", "source_treaty": "India-Sri Lanka Agreement Art.2, 23 Mar 1976" }, "geometry": { "type": "LineString", "coordinates": [ [ 80.05, 10.083333333333334 ], [ 80.083333333333329, 10.096666666666666 ], [ 80.158333333333331, 10.14 ], [ 80.766666666666666, 10.55 ], [ 81.041666666666671, 10.695 ], [ 81.933333333333337, 11.045 ], [ 82.406666666666666, 11.266666666666667 ], [ 83.36666666666666, 11.443333333333333 ] ] } }
]
}
