{
"type": "FeatureCollection",
"name": "india_ports",
"crs": { "type": "name", "properties": { "name": "urn:ogc:def:crs:OGC:1.3:CRS84" } },
"features": [
{ "type": "Feature", "properties": { "scalerank": 8, "featurecla": "Port", "name": "Alleppey", "website": null, "natlscale": 5.0 }, "geometry": { "type": "Point", "coordinates": [ 76.31042403, 9.491944444 ] } },
{ "type": "Feature", "properties": { "scalerank": 8, "featurecla": "Port", "name": "Kakinada", "website": "www.kakinadaseaports.in", "natlscale": 5.0 }, "geometry": { "type": "Point", "coordinates": [ 82.2746172, 16.97777778 ] } },
{ "type": "Feature", "properties": { "scalerank": 8, "featurecla": "Port", "name": "Tuticorin", "website": "tuticorinport.gov.in", "natlscale": 5.0 }, "geometry": { "type": "Point", "coordinates": [ 78.18704358, 8.758333333 ] } },
{ "type": "Feature", "properties": { "scalerank": 8, "featurecla": "Port", "name": "Galle", "website": "www.slpa.lk", "natlscale": 5.0 }, "geometry": { "type": "Point", "coordinates": [ 80.22497055, 6.033333333 ] } },
{ "type": "Feature", "properties": { "scalerank": 7, "featurecla": "Port", "name": "Mongla", "website": "www.monglaport.com.bd", "natlscale": 10.0 }, "geometry": { "type": "Point", "coordinates": [ 89.58598351, 22.48694444 ] } },
{ "type": "Feature", "properties": { "scalerank": 7, "featurecla": "Port", "name": "Mangalore", "website": "www.newmangalore-port.com", "natlscale": 10.0 }, "geometry": { "type": "Point", "coordinates": [ 74.80742049, 12.92694444 ] } },
{ "type": "Feature", "properties": { "scalerank": 7, "featurecla": "Port", "name": "Porbandar", "website": "www.gmbports.org", "natlscale": 10.0 }, "geometry": { "type": "Point", "coordinates": [ 69.58739694, 21.63944444 ] } },
{ "type": "Feature", "properties": { "scalerank": 7, "featurecla": "Port", "name": "Ratnagiri", "website": null, "natlscale": 10.0 }, "geometry": { "type": "Point", "coordinates": [ 73.27179034, 17.00194444 ] } },
{ "type": "Feature", "properties": { "scalerank": 7, "featurecla": "Port", "name": "Bombay", "website": null, "natlscale": 10.0 }, "geometry": { "type": "Point", "coordinates": [ 72.83, 18.83 ] } },
{ "type": "Feature", "properties": { "scalerank": 7, "featurecla": "Port", "name": "Jawaharlal Nehru Port", "website": null, "natlscale": 10.0 }, "geometry": { "type": "Point", "coordinates": [ 72.93, 18.95 ] } },
{ "type": "Feature", "properties": { "scalerank": 7, "featurecla": "Port", "name": "Cochin", "website": null, "natlscale": 10.0 }, "geometry": { "type": "Point", "coordinates": [ 76.23, 9.96 ] } },
{ "type": "Feature", "properties": { "scalerank": 7, "featurecla": "Port", "name": "Madras", "website": null, "natlscale": 10.0 }, "geometry": { "type": "Point", "coordinates": [ 80.3, 13.1 ] } },
{ "type": "Feature", "properties": { "scalerank": 7, "featurecla": "Port", "name": "Calcutta", "website": null, "natlscale": 10.0 }, "geometry": { "type": "Point", "coordinates": [ 88.31, 22.55 ] } },
{ "type": "Feature", "properties": { "scalerank": 6, "featurecla": "Port", "name": "Port Blair", "website": null, "natlscale": 20.0 }, "geometry": { "type": "Point", "coordinates": [ 92.72391048, 11.67222222 ] } },
{ "type": "Feature", "properties": { "scalerank": 6, "featurecla": "Port", "name": "Kandla", "website": "www.kandlaport.com", "natlscale": 20.0 }, "geometry": { "type": "Point", "coordinates": [ 70.22232038, 23.01361111 ] } },
{ "type": "Feature", "properties": { "scalerank": 6, "featurecla": "Port", "name": "Pondicherry", "website": "port.pon.nic.in", "natlscale": 20.0 }, "geometry": { "type": "Point", "coordinates": [ 79.82232038, 11.91416667 ] } },
{ "type": "Feature", "properties": { "scalerank": 6, "featurecla": "Port", "name": "Trincomalee", "website": "www.slpa.lk", "natlscale": 20.0 }, "geometry": { "type": "Point", "coordinates": [ 81.20388693, 8.558333333 ] } },
{ "type": "Feature", "properties": { "scalerank": 5, "featurecla": "Port", "name": "Bhavnagar", "website": "www.gmbports.org", "natlscale": 30.0 }, "geometry": { "type": "Point", "coordinates": [ 72.20600707, 21.77 ] } },
{ "type": "Feature", "properties": { "scalerank": 5, "featurecla": "Port", "name": "Visakhapatnam", "website": "www.vizagport.com", "natlscale": 30.0 }, "geometry": { "type": "Point", "coordinates": [ 83.28722026, 17.69333333 ] } },
{ "type": "Feature", "properties": { "scalerank": 5, "featurecla": "Port", "name": "Colombo", "website": "www.slpa.lk", "natlscale": 30.0 }, "geometry": { "type": "Point", "coordinates": [ 79.85017668, 6.951388889 ] } },
{ "type": "Feature", "properties": { "scalerank": 4, "featurecla": "Port", "name": "Chittagong", "website": "www.cpa.gov.bd", "natlscale": 50.0 }, "geometry": { "type": "Point", "coordinates": [ 91.82585395, 22.26888889 ] } }
]
}
