{"type": "FeatureCollection", "features": [{"type": "Feature", "properties": {"mrgid": 8333, "geoname": "Indian Exclusive Economic Zone (Andaman and Nicobar Islands)", "mrgid_ter1": 8605, "pol_type": "200NM", "mrgid_sov1": 2128, "territory1": "Andaman and Nicobar", "iso_ter1": null, "sovereign1": "India", "mrgid_ter2": null, "mrgid_sov2": null, "territory2": null, "iso_ter2": null, "sovereign2": null, "mrgid_ter3": null, "mrgid_sov3": null, "territory3": null, "iso_ter3": null, "sovereign3": null, "x_1": 92.18967, "y_1": 9.97738, "mrgid_eez": 8333, "area_km2": 664448, "iso_sov1": "IND", "iso_sov2": null, "iso_sov3": null, "un_sov1": 356, "un_sov2": null, "un_sov3": null, "un_ter1": null, "un_ter2": null, "un_ter3": null}, "geometry": {"type": "MultiPolygon", "coordinates": [[[[90.22874354, 15.71683539], [90.23361111, 15.71388889], [95.60861111, 9.28833333], [92.16011405, 3.84065779], [92.11952966, 3.86389176], [92.05367263, 3.90339113], [91.9737151, 3.95416376], [91.90119592, 4.00302061], [91.82408859, 4.05807403], [91.75430586, 4.11080912], [91.68092504, 4.16944784], [91.64462105, 4.19971479], [91.5873837, 4.24926872], [91.51991909, 4.31081288], [91.4607124, 4.36738904], [91.3990543, 4.42952445], [91.33409272, 4.49863043], [91.27587342, 4.56403169], [91.23967813, 4.60644085], [91.19723684, 4.65811167], [91.14649103, 4.72271612], [91.09330694, 4.79408893], [91.045895, 4.86120091], [90.99639114, 4.93519684], [90.95084062, 5.00725383], [90.92370867, 5.05208744], [90.91086899, 5.0735801], [90.9016215, 5.08906371], [90.89237375, 5.10454741], [90.88312573, 5.12003122], [90.86525522, 5.14997974], [90.84983063, 5.17577369], [90.84058181, 5.19125719], [90.83133185, 5.20674225], [90.82208205, 5.22222668], [90.81283273, 5.23770997], [90.8035824, 5.25319458], [90.79433179, 5.2686793], [90.77780951, 5.29638304], [90.75630196, 5.33307302], [90.71610525, 5.40469259], [90.67125029, 5.4897687], [90.62711097, 5.57971555], [90.61217573, 5.61167189], [90.60460816, 5.62804344], [90.59703907, 5.64441772], [90.58639304, 5.66754645], [90.5758637, 5.69029997], [90.56562476, 5.71237079], [90.55805472, 5.72874431], [90.55048442, 5.74511786], [90.53499562, 5.77867362], [90.52057755, 5.80979709], [90.51300515, 5.82617246], [90.50543248, 5.8425479], [90.49786043, 5.85892143], [90.49028773, 5.87529581], [90.48271353, 5.89167291], [90.47514024, 5.90804748], [90.46528793, 5.92948098], [90.45606903, 5.9494664], [90.44522171, 5.97273043], [90.43764701, 5.98910535], [90.42699232, 6.01222848], [90.41646093, 6.03498561], [90.40620674, 6.05706678], [90.39863045, 6.07344231], [90.38544398, 6.10200506], [90.37059422, 6.13403557], [90.36301688, 6.1504108], [90.35543825, 6.16678825], [90.34785938, 6.18316569], [90.3402808, 6.19954195], [90.332702, 6.21591815], [90.32512216, 6.23229604], [90.3175421, 6.24867385], [90.30730306, 6.27092312], [90.29815702, 6.29095667], [90.28686132, 6.31501071], [90.27963878, 6.3305612], [90.26897659, 6.35367629], [90.25844699, 6.37643785], [90.24817399, 6.39852815], [90.23272146, 6.43196131], [90.21821956, 6.46322379], [90.21063587, 6.47960169], [90.2030513, 6.49598095], [90.19546765, 6.51235767], [90.18788185, 6.52873849], [90.18029667, 6.54511741], [90.17271149, 6.56149579], [90.16512606, 6.57787414], [90.15753964, 6.59425409], [90.14995298, 6.61063402], [90.13929157, 6.63368808], [90.12643399, 6.661409], [90.11886731, 6.67779846], [90.10823069, 6.70092071], [90.09785878, 6.72319899], [90.0810605, 6.75938663], [90.06610456, 6.79162958], [90.05851365, 6.80801204], [90.05092365, 6.82439195], [90.04333278, 6.84077321], [90.03574254, 6.85715257], [90.02815101, 6.87353414], [89.99353672, 6.9508605], [89.97255604, 7.00004349], [89.96560105, 7.01670681], [89.95864575, 7.03337022], [89.95168989, 7.05003432], [89.94473421, 7.06669733], [89.93777798, 7.08336102], [89.92677036, 7.10975671], [89.91725446, 7.13252149], [89.91029811, 7.14918291], [89.89913002, 7.17598913], [89.89074131, 7.19646924], [89.87585332, 7.23167342], [89.86889463, 7.24833661], [89.86193503, 7.26500131], [89.85497453, 7.28166754], [89.8480149, 7.29833101], [89.84105413, 7.31499657], [89.83409354, 7.33166107], [89.82713239, 7.34832624], [89.82017093, 7.3649915], [89.81320917, 7.38165686], [89.80624649, 7.39832373], [89.79928446, 7.41498844], [89.76927984, 7.4815262], [89.73212959, 7.5689902], [89.69858216, 7.65456235], [89.685057, 7.68831667], [89.6780895, 7.70498315], [89.67117224, 7.72167366], [89.66415614, 7.7383189], [89.65459208, 7.76047357], [89.61242438, 7.85668574], [89.57829335, 7.94055071], [89.55653117, 7.99763471], [89.53573687, 8.0554018], [89.51233585, 8.12469612], [89.48868619, 8.20031784], [89.46844966, 8.27059639], [89.44246925, 8.37089841], [89.43472845, 8.40269622], [89.43037601, 8.42019195], [89.42602324, 8.43768776], [89.42166974, 8.45518519], [89.41731629, 8.47268113], [89.41296289, 8.4901756], [89.40333739, 8.52901807], [89.39322279, 8.56956202], [89.38574378, 8.59952881], [89.38138764, 8.61702502], [89.37703105, 8.63452177], [89.37274853, 8.65203981], [89.36793553, 8.6711005], [89.3552433, 8.72200561], [89.35088474, 8.7395026], [89.34652585, 8.75699963], [89.34216701, 8.77449517], [89.33780744, 8.79199234], [89.33344754, 8.80948958], [89.3290873, 8.82698689], [89.32269927, 8.85278283], [89.31360573, 8.8891029], [89.30924396, 8.90660052], [89.30293624, 8.93206648], [89.29247173, 8.9739883], [89.28612055, 8.99934067], [89.28175669, 9.01683857], [89.27282516, 9.05273222], [89.26648039, 9.07808233], [89.26211498, 9.09558068], [89.25780081, 9.11309098], [89.25340069, 9.13058009], [89.24901711, 9.14807457], [89.24465035, 9.16557319], [89.24028286, 9.1830734], [89.23154787, 9.21810612], [89.22477731, 9.24519277], [89.22040828, 9.26269329], [89.21603927, 9.28019251], [89.20715557, 9.31588592], [89.19912276, 9.34810179], [89.19012042, 9.38407327], [89.17976419, 9.42543527], [89.17539158, 9.44293687], [89.17101909, 9.46043673], [89.1666463, 9.47793648], [89.16227315, 9.49543637], [89.15779165, 9.51287584], [89.15082344, 9.52951868], [89.14396227, 9.54622313], [89.12860665, 9.58371986], [89.11936368, 9.60611702], [89.10759765, 9.63474617], [89.1007347, 9.65145062], [89.0938726, 9.6681523], [89.08700959, 9.6848555], [89.08014568, 9.70156021], [89.07328263, 9.71826217], [89.05965797, 9.75180369], [89.0319122, 9.82316237], [89.0076189, 9.89011702], [88.97961546, 9.97328166], [88.9517554, 10.06416402], [88.92833204, 10.14871173], [88.90547691, 10.24095788], [88.8867096, 10.32664001], [88.87449, 10.38908845], [88.86356672, 10.45133467], [88.85180259, 10.52770307], [88.84105763, 10.6107144], [88.83199272, 10.69948551], [88.82533538, 10.78542905], [88.82120837, 10.86579468], [88.82014967, 10.89549027], [88.81956865, 10.91343442], [88.81898734, 10.93137697], [88.81840561, 10.9493211], [88.81782353, 10.96726533], [88.81724109, 10.98520957], [88.81665824, 11.00315543], [88.81537781, 11.04391854], [88.81422519, 11.07905523], [88.81307444, 11.11361198], [88.81192447, 11.1485036], [88.81133843, 11.16644777], [88.81075203, 11.184392], [88.81016528, 11.2023363], [88.80957816, 11.22028063], [88.8086205, 11.25021296], [88.80747666, 11.28667887], [88.80684812, 11.30461927], [88.80637572, 11.32255921], [88.80563529, 11.34050714], [88.80504543, 11.35845126], [88.80445519, 11.37639577], [88.80386461, 11.39434002], [88.80310837, 11.41760996], [88.80140211, 11.47339309], [88.80048026, 11.49868943], [88.79906794, 11.55810287], [88.79879663, 11.62349766], [88.80069679, 11.71845411], [88.8048653, 11.80602416], [88.81201326, 11.90073652], [88.82102264, 11.98795171], [88.83340771, 12.08213851], [88.84438009, 12.15212771], [88.85469069, 12.21010102], [88.87347382, 12.30325755], [88.8932021, 12.38874807], [88.91714276, 12.48075638], [88.94160546, 12.56505938], [88.97064287, 12.65564415], [88.99409277, 12.72295003], [89.01877621, 12.78898469], [89.06301923, 12.89795262], [89.10732795, 12.99711908], [89.13235076, 13.04933155], [89.1400233, 13.06537167], [89.14789659, 13.08131863], [89.15558831, 13.09736225], [89.17248163, 13.13204313], [89.18673283, 13.1613288], [89.19451764, 13.17731907], [89.20230401, 13.1933131], [89.21008884, 13.20930451], [89.21787333, 13.22529576], [89.22565698, 13.24128581], [89.24126261, 13.27317615], [89.26029334, 13.31244635], [89.2706725, 13.37640063], [89.28152759, 13.44330641], [89.28641077, 13.47266424], [89.28908507, 13.4903465], [89.29219805, 13.51231589], [89.29814274, 13.55279751], [89.30263526, 13.58369024], [89.30963049, 13.62918098], [89.31713724, 13.67386632], [89.33414766, 13.763753], [89.35208743, 13.84628906], [89.37392148, 13.93517648], [89.39629228, 14.01667569], [89.42290031, 14.10431721], [89.44618156, 14.17456232], [89.45547187, 14.20129186], [89.46134724, 14.2180699], [89.46722152, 14.23484572], [89.47309575, 14.25162225], [89.47896988, 14.26839942], [89.48484346, 14.28517588], [89.49071641, 14.30195145], [89.4965894, 14.31872801], [89.50355666, 14.33857376], [89.5116455, 14.36170476], [89.52493999, 14.39920411], [89.53065795, 14.41602409], [89.53661049, 14.4327686], [89.54238634, 14.44958048], [89.55812866, 14.49455301], [89.56674399, 14.51919808], [89.57473591, 14.54191453], [89.58692596, 14.57554713], [89.62051625, 14.66299914], [89.65417416, 14.7438396], [89.68424318, 14.81137164], [89.69324783, 14.83089445], [89.70067598, 14.84696373], [89.71689207, 14.88429477], [89.74498645, 14.94851231], [89.78516723, 15.03505745], [89.82451645, 15.11392144], [89.86954994, 15.19819526], [89.9049546, 15.26060144], [89.94073788, 15.32054226], [89.98778432, 15.39526442], [90.04104438, 15.47482486], [90.09228124, 15.54692967], [90.1500035, 15.62353454], [90.20528461, 15.69280263], [90.22874354, 15.71683539]], [[93.01523542, 13.67611122], [93.01416385, 13.67390144], [93.00276303, 13.64761734], [93.01523542, 13.67611122]], [[93.02269864, 13.67430127], [93.02360988, 13.6708641], [93.02269864, 13.67430127]], [[93.04531407, 13.62910914], [93.04684365, 13.62092996], [93.0517652, 13.64632964], [93.04531407, 13.62910914]], [[92.88513327, 13.57438254], [92.88550055, 13.57425487], [92.88513327, 13.57438254]], [[93.02702677, 13.57870066], [93.02366364, 13.57286465], [93.00959611, 13.54426026], [92.98444748, 13.56135035], [92.97576511, 13.52826226], [92.92768776, 13.53926826], [92.92053473, 13.49953234], [92.87629795, 13.44383955], [92.86772704, 13.40227675], [92.85957778, 13.38540995], [92.827407, 13.32988453], [92.82531404, 13.28044534], [92.82782102, 13.23651671], [92.826074, 13.18095636], [92.8125, 13.15764511], [92.84184337, 13.13863957], [92.81264305, 13.12137282], [92.80538607, 13.08676112], [92.79252684, 13.05546105], [92.81092525, 13.00920761], [92.8125, 12.99302447], [92.79932237, 12.99132586], [92.79857826, 12.93053412], [92.84305465, 12.89173365], [92.85603941, 12.91300595], [92.88232374, 12.98253107], [92.91612005, 12.95269728], [92.91937888, 12.98651958], [92.91521823, 13.04800868], [92.89292085, 13.09382415], [92.93704021, 13.08443356], [92.9706068, 13.01262927], [93.00281894, 13.0288949], [93.03555882, 13.096524], [93.04260743, 13.20772803], [93.04336238, 13.27968574], [93.01177597, 13.30831456], [92.98492491, 13.3197031], [92.97094655, 13.359375], [92.98921096, 13.33042705], [93.04032075, 13.35726726], [93.05330062, 13.32779443], [93.08759856, 13.34346962], [93.03620183, 13.37465525], [93.06057668, 13.40403306], [93.02725732, 13.43379986], [93.03490555, 13.47635663], [93.02937043, 13.57305646], [93.02702677, 13.57870066]], [[93.05213642, 13.56291854], [93.05396426, 13.55976391], [93.05213642, 13.56291854]], [[94.27200842, 13.46546221], [94.26781321, 13.46267974], [94.27516484, 13.45789075], [94.27200842, 13.46546221]], [[93.09933138, 13.43573296], [93.09804666, 13.43814325], [93.09933138, 13.43573296]], [[93.07104385, 13.42221391], [93.07268548, 13.43110275], [93.07104385, 13.42221391]], [[93.08705711, 13.41577256], [93.08733737, 13.41219771], [93.08705711, 13.41577256]], [[93.06170964, 13.38496792], [93.06169593, 13.38323736], [93.06170964, 13.38496792]], [[93.08097351, 13.36805546], [93.08222222, 13.36687291], [93.08097351, 13.36805546]], [[93.07449198, 13.36438024], [93.07778704, 13.36314285], [93.07449198, 13.36438024]], [[93.07366335, 13.30333054], [93.07098877, 13.3001734], [93.07366335, 13.30333054]], [[93.0223093, 13.30266452], [93.02394843, 13.30828762], [93.0223093, 13.30266452]], [[93.01568103, 13.34003377], [93.01535702, 13.34019554], [93.01568103, 13.34003377]], [[93.0383898, 13.34330666], [93.03800547, 13.34401715], [93.0383898, 13.34330666]], [[92.96972215, 13.33805561], [92.96944427, 13.33833325], [92.96972215, 13.33805561]], [[93.01430416, 13.28436434], [93.01583326, 13.2833333], [93.01430416, 13.28436434]], [[93.05959105, 13.22141922], [93.06107306, 13.22074592], [93.05959105, 13.22141922]], [[92.93952668, 13.01159024], [92.94255304, 13.01799333], [92.91749716, 13.00851727], [92.93952668, 13.01159024]], [[92.98695028, 12.99810207], [92.98837817, 12.99790084], [92.98695028, 12.99810207]], [[93.00575757, 12.99752343], [93.00395036, 12.99611807], [92.9689306, 12.98109937], [92.95603967, 12.95818853], [92.97935021, 12.93292356], [93.00575757, 12.99752343]], [[92.87664664, 12.93238282], [92.87354934, 12.93445921], [92.87954795, 12.92351365], [92.87664664, 12.93238282]], [[92.89814126, 12.92140853], [92.895226, 12.91710746], [92.82927465, 12.88493645], [92.78244495, 12.85962605], [92.77534425, 12.82941544], [92.75351357, 12.84530115], [92.73947513, 12.81631231], [92.72404396, 12.82716632], [92.74393487, 12.72425485], [92.75972271, 12.67103791], [92.78093708, 12.65424204], [92.77707791, 12.63761544], [92.74066961, 12.66057456], [92.70354664, 12.61197186], [92.70761096, 12.56140685], [92.70331538, 12.48046875], [92.70442045, 12.36862004], [92.71379185, 12.31212831], [92.75781083, 12.29826903], [92.79269195, 12.31008232], [92.86953294, 12.31391323], [92.88752234, 12.34389543], [92.85795307, 12.36647344], [92.82994235, 12.42779875], [92.79629707, 12.43830848], [92.86100483, 12.42518985], [92.85259426, 12.45485795], [92.84423876, 12.46997476], [92.90782166, 12.42217505], [92.93807042, 12.44734705], [92.93238544, 12.47817111], [92.96544564, 12.50463235], [92.95848155, 12.61809027], [92.97226512, 12.71171355], [92.93527067, 12.77188241], [92.94580185, 12.83203125], [92.92000103, 12.88750875], [92.89898443, 12.91591716], [92.89814126, 12.92140853]], [[92.93178272, 12.91869152], [92.93154573, 12.91704571], [92.93178272, 12.91869152]], [[92.91225576, 12.91389537], [92.91252875, 12.9177227], [92.91225576, 12.91389537]], [[92.94904876, 12.42888665], [92.94844115, 12.42089844], [92.93112612, 12.35884404], [92.95641732, 12.43500006], [92.94904876, 12.42888665]], [[92.89043665, 12.39175594], [92.89376044, 12.3967272], [92.84438932, 12.39521515], [92.88496256, 12.37482774], [92.89043665, 12.39175594]], [[92.89808893, 12.40811193], [92.89908767, 12.40770614], [92.89808893, 12.40811193]], [[92.89594924, 12.39209962], [92.8969655, 12.39207911], [92.89594924, 12.39209962]], [[92.86688876, 12.41269445], [92.86898994, 12.41433811], [92.86688876, 12.41269445]], [[92.84215522, 12.42105746], [92.83779907, 12.42489254], [92.84215522, 12.42105746]], [[92.88879013, 12.41298675], [92.88934982, 12.41284895], [92.88879013, 12.41298675]], [[92.90123177, 12.42571151], [92.90048003, 12.42580962], [92.90123177, 12.42571151]], [[92.87522233, 12.44492126], [92.87449431, 12.44516873], [92.87522233, 12.44492126]], [[92.90835392, 12.34144831], [92.91018045, 12.33807445], [92.90835392, 12.34144831]], [[92.90592766, 12.34086394], [92.90528548, 12.34102392], [92.90592766, 12.34086394]], [[92.91110086, 12.33358586], [92.91150177, 12.33238232], [92.91110086, 12.33358586]], [[93.06853545, 12.31905782], [93.06300795, 12.31592357], [93.06853545, 12.31905782]], [[92.92995167, 12.30571628], [92.92987776, 12.3046875], [92.90166581, 12.28019071], [92.92138457, 12.23153555], [92.93656456, 12.29824114], [92.92995167, 12.30571628]], [[93.84751952, 12.28237152], [93.84613597, 12.27715731], [93.84751952, 12.28237152]], [[93.02997625, 12.27981687], [93.02965343, 12.2801702], [93.02997625, 12.27981687]], [[93.0625, 12.23388875], [93.06333327, 12.22916663], [93.10055554, 12.23138893], [93.0866667, 12.23722208], [93.0625, 12.23388875]], [[93.07213831, 12.21078217], [93.06860483, 12.21157443], [93.03998745, 12.12660933], [93.06633067, 12.09523392], [93.09041509, 12.10117543], [93.0949831, 12.14241755], [93.08553731, 12.18691492], [93.07213831, 12.21078217]], [[93.11223793, 12.13805032], [93.11248267, 12.13553608], [93.11223793, 12.13805032]], [[93.09856224, 12.13660705], [93.09821224, 12.13695145], [93.09856224, 12.13660705]], [[93.03190744, 12.11596155], [93.03378975, 12.12237096], [93.00268006, 12.12890625], [92.98302913, 12.14894974], [92.99707842, 12.11345851], [93.05309117, 12.06910014], [93.03190744, 12.11596155]], [[93.00061941, 12.06835747], [92.99911797, 12.07212997], [92.9742192, 12.10543656], [92.96043015, 12.08242905], [92.99364662, 12.04383612], [93.00061941, 12.06835747]], [[92.96610677, 12.04823756], [92.96491563, 12.04956198], [92.97046065, 11.953125], [93.01260793, 11.91585457], [93.04804611, 11.9130938], [93.00774395, 12.00716221], [92.96610677, 12.04823756]], [[92.78096855, 11.89694512], [92.78545225, 11.89967334], [92.74552512, 11.93101025], [92.71301007, 11.81954718], [92.72526574, 11.87540483], [92.71704853, 11.94540775], [92.73085904, 11.9931277], [92.75252044, 11.99221528], [92.74827576, 12.01480734], [92.74397087, 12.03478122], [92.77306521, 12.04720092], [92.73751891, 12.0707525], [92.75635076, 12.17746913], [92.70393884, 12.16522777], [92.68916786, 12.23475242], [92.65778816, 12.18706512], [92.63176763, 12.1229459], [92.6276834, 12.04411304], [92.60937834, 11.95608842], [92.60170722, 11.87146902], [92.56546795, 11.94289351], [92.52495444, 11.87129045], [92.54674327, 11.8293761], [92.55273533, 11.76290751], [92.59616101, 11.69485354], [92.63183546, 11.65064013], [92.61038065, 11.62159288], [92.61820924, 11.56719232], [92.64610207, 11.52361727], [92.70533276, 11.49232042], [92.72883844, 11.5397315], [92.74382556, 11.58366275], [92.75219858, 11.63135147], [92.74933255, 11.67293668], [92.72838736, 11.65721893], [92.69216382, 11.62767005], [92.67318952, 11.63041341], [92.70096171, 11.67671311], [92.73005128, 11.69776475], [92.76171374, 11.74065352], [92.78097403, 11.84300935], [92.78096855, 11.89694512]], [[93.0138309, 11.83189797], [93.01554227, 11.82859874], [93.06958187, 11.84251678], [93.0138309, 11.83189797]], [[93.07833481, 11.77976573], [93.08114171, 11.77936375], [93.07833481, 11.77976573]], [[92.72298026, 11.68729782], [92.72524416, 11.68706596], [92.72298026, 11.68729782]], [[92.69468403, 11.65965271], [92.69964266, 11.65934277], [92.69468403, 11.65965271]], [[92.76368403, 11.67866933], [92.75997376, 11.67678225], [92.76368403, 11.67866933]], [[92.67029476, 11.4856261], [92.66832721, 11.48998487], [92.61373842, 11.47477782], [92.62526727, 11.42020571], [92.60988343, 11.34609985], [92.69049263, 11.36990631], [92.6556251, 11.4074949], [92.68573833, 11.43592513], [92.67029476, 11.4856261]], [[92.56120193, 11.39783955], [92.56084812, 11.39792764], [92.56120193, 11.39783955]], [[92.55083478, 11.39630592], [92.54937458, 11.39758396], [92.55083478, 11.39630592]], [[92.61631477, 11.51117504], [92.61598515, 11.51140857], [92.61631477, 11.51117504]], [[92.27331996, 11.51616073], [92.27256298, 11.51809227], [92.27331996, 11.51616073]], [[92.26210201, 11.51796162], [92.26636982, 11.52040768], [92.21557033, 11.59439623], [92.22163141, 11.53007746], [92.26210201, 11.51796162]], [[92.53191102, 11.59340584], [92.53213477, 11.59060633], [92.56915307, 11.58841026], [92.53191102, 11.59340584]], [[92.60123491, 11.58572221], [92.60087836, 11.58527887], [92.60123491, 11.58572221]], [[92.61003685, 11.55918574], [92.60746348, 11.56312466], [92.61847734, 11.55966437], [92.61003685, 11.55918574]], [[92.62734747, 11.54248238], [92.62790835, 11.5422312], [92.62734747, 11.54248238]], [[92.60476208, 11.53440106], [92.602548, 11.53803146], [92.60476208, 11.53440106]], [[92.56167865, 11.53217638], [92.56053305, 11.53399158], [92.56167865, 11.53217638]], [[92.58324564, 11.54031205], [92.58365941, 11.53443646], [92.58767664, 11.55529678], [92.58324564, 11.54031205]], [[92.57676828, 11.57021737], [92.57663846, 11.57079172], [92.57676828, 11.57021737]], [[92.56749213, 11.57057416], [92.56715381, 11.57111335], [92.56749213, 11.57057416]], [[92.57770395, 11.58531904], [92.57726681, 11.58541381], [92.57770395, 11.58531904]], [[92.64377451, 11.51325882], [92.64485931, 11.51315522], [92.64377451, 11.51325882]], [[92.67058682, 11.48707676], [92.67326927, 11.48706984], [92.67058682, 11.48707676]], [[92.55168855, 11.72495806], [92.55140924, 11.72530317], [92.55168855, 11.72495806]], [[92.56799126, 11.94398654], [92.56880712, 11.94373691], [92.56799126, 11.94398654]], [[92.59699941, 11.95201385], [92.59643364, 11.94198275], [92.60266614, 11.96331883], [92.59699941, 11.95201385]], [[92.58300054, 11.97587395], [92.58477807, 11.97708178], [92.58300054, 11.97587395]], [[92.59605575, 11.90600562], [92.59696722, 11.90559816], [92.59605575, 11.90600562]], [[92.63041973, 12.11621654], [92.63037765, 12.11654711], [92.63041973, 12.11621654]], [[92.63164365, 12.11979377], [92.63153863, 12.12045515], [92.63164365, 12.11979377]], [[92.68131745, 12.21523607], [92.68268275, 12.21497714], [92.68131745, 12.21523607]], [[92.70997894, 12.2314893], [92.71098375, 12.23048592], [92.70467305, 12.29809237], [92.70997894, 12.2314893]], [[92.69754183, 12.25063682], [92.69700921, 12.25080061], [92.69754183, 12.25063682]], [[92.77709854, 12.29619491], [92.77499771, 12.29448855], [92.74589276, 12.24501193], [92.76738012, 12.18488991], [92.7420001, 12.07740104], [92.79089487, 12.09758234], [92.81070995, 12.12950218], [92.83843684, 12.16531634], [92.85443115, 12.20376515], [92.87827516, 12.25115383], [92.87489116, 12.28743386], [92.85003936, 12.30224204], [92.79637182, 12.30400574], [92.77709854, 12.29619491]], [[92.76514792, 12.29708505], [92.7651031, 12.29894948], [92.76514792, 12.29708505]], [[92.87711036, 12.29415405], [92.87853944, 12.29398632], [92.87711036, 12.29415405]], [[92.89958334, 12.25986016], [92.90087891, 12.25867474], [92.89958334, 12.25986016]], [[92.88727331, 12.25119114], [92.88533545, 12.24807012], [92.88422883, 12.22137237], [92.91402984, 12.23252857], [92.88727331, 12.25119114]], [[92.9337939, 12.22520185], [92.92722857, 12.22147155], [92.93644536, 12.22387481], [92.9337939, 12.22520185]], [[93.01953995, 12.22495306], [93.01931894, 12.22270775], [93.01953995, 12.22495306]], [[92.86873591, 12.24811876], [92.86823702, 12.24912512], [92.86873591, 12.24811876]], [[92.87999988, 12.24888885], [92.87944436, 12.24805546], [92.87999988, 12.24888885]], [[92.84451306, 12.14770436], [92.84572756, 12.14770222], [92.84451306, 12.14770436]], [[92.94989693, 12.11091304], [92.94899962, 12.10117543], [92.94989693, 12.11091304]], [[92.99257326, 12.11076903], [92.99301386, 12.11028147], [92.99257326, 12.11076903]], [[92.96947205, 12.06495666], [92.96974492, 12.06394422], [92.96947205, 12.06495666]], [[92.74216855, 12.1120038], [92.74256682, 12.11480677], [92.74216855, 12.1120038]], [[92.7583549, 12.18102002], [92.75716054, 12.18112075], [92.7583549, 12.18102002]], [[92.74833822, 12.18089092], [92.74910843, 12.18262362], [92.74733746, 12.23068666], [92.73053944, 12.22901845], [92.72320426, 12.18903947], [92.74833822, 12.18089092]], [[92.73140395, 12.18790436], [92.73023105, 12.18960488], [92.73140395, 12.18790436]], [[92.72117436, 12.18215382], [92.72094345, 12.18231905], [92.72117436, 12.18215382]], [[92.7456696, 12.26999795], [92.74760115, 12.27917326], [92.7456696, 12.26999795]], [[92.73836625, 12.27530718], [92.73811626, 12.27562237], [92.73836625, 12.27530718]], [[92.73662353, 12.28194904], [92.73764241, 12.29244554], [92.73662353, 12.28194904]], [[92.75277782, 12.29222214], [92.75305545, 12.2919445], [92.75277782, 12.29222214]], [[92.76974571, 12.29447317], [92.76657653, 12.28969336], [92.76974571, 12.29447317]], [[92.76335657, 12.29401457], [92.76256096, 12.29410982], [92.76335657, 12.29401457]], [[92.77453113, 12.01850176], [92.77346957, 12.01733792], [92.77453113, 12.01850176]], [[92.75019336, 11.96842802], [92.74960983, 11.96353745], [92.76599514, 11.96415937], [92.75019336, 11.96842802]], [[92.73363018, 11.95668006], [92.73291075, 11.95925403], [92.73363018, 11.95668006]], [[92.74485397, 11.96723986], [92.74391854, 11.96766841], [92.74485397, 11.96723986]], [[92.67520034, 12.54234886], [92.6744076, 12.54244852], [92.67520034, 12.54234886]], [[92.70249152, 12.64053845], [92.70185876, 12.64069283], [92.70249152, 12.64053845]], [[92.73227155, 12.70332003], [92.73118556, 12.7044363], [92.73227155, 12.70332003]], [[92.71973002, 12.72196531], [92.71974313, 12.72910356], [92.7049036, 12.81604636], [92.71809626, 12.71922088], [92.71973002, 12.72196531]], [[92.65646565, 12.77394617], [92.65616214, 12.77402926], [92.65646565, 12.77394617]], [[92.67270374, 12.79873014], [92.67486048, 12.80275321], [92.67643321, 12.83028615], [92.71309197, 12.87742412], [92.72071755, 12.94240165], [92.71081662, 12.98802507], [92.67085373, 12.96426046], [92.67538166, 12.93673742], [92.66440725, 12.88284147], [92.66598785, 12.81033826], [92.67270374, 12.79873014]], [[92.67244577, 12.94916296], [92.67055464, 12.94954073], [92.67244577, 12.94916296]], [[92.66966033, 12.95261991], [92.66815305, 12.95374036], [92.66966033, 12.95261991]], [[92.76338446, 12.92553842], [92.76380122, 12.92553377], [92.76338446, 12.92553842]], [[92.77067041, 12.92615747], [92.76942861, 12.92279637], [92.77067041, 12.92615747]], [[92.76723886, 12.92025876], [92.7666769, 12.92464256], [92.76723886, 12.92025876]], [[92.76669514, 12.91779184], [92.76800775, 12.91662955], [92.76669514, 12.91779184]], [[92.79130697, 12.91663587], [92.78734076, 12.91259563], [92.80041933, 12.89766037], [92.79130697, 12.91663587]], [[92.78627634, 12.89306176], [92.78346527, 12.89313614], [92.78627634, 12.89306176]], [[92.75623453, 12.8926779], [92.75708675, 12.90322065], [92.75623453, 12.8926779]], [[92.75685585, 12.87785018], [92.75710213, 12.87671137], [92.75685585, 12.87785018]], [[92.76228762, 12.86531341], [92.76298285, 12.86307907], [92.76228762, 12.86531341]], [[92.77774203, 12.86469662], [92.77843475, 12.86465526], [92.77774203, 12.86469662]], [[92.72701991, 12.86519158], [92.72624075, 12.8652662], [92.72982395, 12.86105692], [92.72701991, 12.86519158]], [[92.72922087, 12.85585153], [92.72986221, 12.85507071], [92.72922087, 12.85585153]], [[92.72475243, 12.83378243], [92.72497666, 12.83250511], [92.72475243, 12.83378243]], [[92.71603525, 12.80278265], [92.7169826, 12.80257797], [92.71603525, 12.80278265]], [[92.71556175, 12.79934371], [92.71616697, 12.79839623], [92.71556175, 12.79934371]], [[92.71533597, 12.79615557], [92.71511304, 12.79503763], [92.71533597, 12.79615557]], [[92.71995127, 12.77784586], [92.71816182, 12.7711426], [92.71995127, 12.77784586]], [[92.71597695, 12.77702773], [92.7156049, 12.77710784], [92.71597695, 12.77702773]], [[92.72623801, 12.75146747], [92.72682583, 12.75140548], [92.72623801, 12.75146747]], [[92.72287965, 12.73525751], [92.72471225, 12.73315406], [92.72287965, 12.73525751]], [[92.89370394, 12.89856494], [92.89263344, 12.89986682], [92.89370394, 12.89856494]], [[92.86473322, 12.91323805], [92.86339295, 12.91475427], [92.8633424, 12.91347015], [92.86473322, 12.91323805]], [[92.8912785, 12.93743706], [92.89072084, 12.93752754], [92.8912785, 12.93743706]], [[92.90270615, 12.93983901], [92.90111411, 12.94162941], [92.90270615, 12.93983901]], [[92.91165864, 13.00492167], [92.91136396, 13.00530577], [92.91165864, 13.00492167]], [[92.94532716, 13.02520943], [92.94928324, 13.02123666], [92.94532716, 13.02520943]], [[92.91703641, 13.04696238], [92.91614234, 13.04723835], [92.91703641, 13.04696238]], [[92.93450296, 13.0512377], [92.93288434, 13.05273426], [92.93450296, 13.0512377]], [[92.91409385, 13.06668985], [92.91346288, 13.0668962], [92.91409385, 13.06668985]], [[92.71125591, 13.08979654], [92.71918952, 13.09313583], [92.70473456, 13.06982684], [92.71125591, 13.08979654]], [[92.72827506, 13.09050512], [92.72891295, 13.09031367], [92.72827506, 13.09050512]], [[92.79490292, 13.17096531], [92.79458415, 13.17106795], [92.79490292, 13.17096531]], [[92.81819296, 13.41166663], [92.81777775, 13.41444445], [92.81819296, 13.41166663]], [[92.82722223, 13.42111111], [92.83194435, 13.41861105], [92.82055545, 13.42694437], [92.82722223, 13.42111111]], [[92.86500001, 13.41194427], [92.86583185, 13.41139555], [92.86500001, 13.41194427]], [[92.87472224, 13.50666654], [92.87305546, 13.50972223], [92.87472224, 13.50666654]], [[92.91349328, 13.50823045], [92.91559005, 13.50675905], [92.91349328, 13.50823045]], [[92.91194427, 13.53515625], [92.90999985, 13.53722215], [92.91194427, 13.53515625]], [[92.87649858, 13.53515625], [92.8786298, 13.53775573], [92.87649858, 13.53515625]], [[93.00631821, 13.55543196], [93.00722945, 13.55529463], [93.00631821, 13.55543196]], [[92.71500003, 11.31694436], [92.71236014, 11.31062448], [92.71388876, 11.32055545], [92.71500003, 11.31694436]], [[92.71056926, 11.30800486], [92.71027875, 11.30839896], [92.71056926, 11.30800486]], [[92.69222236, 11.25566184], [92.69019258, 11.25], [92.70537496, 11.28925824], [92.69222236, 11.25566184]], [[92.67555547, 11.17805553], [92.67750001, 11.17694437], [92.67555547, 11.17805553]], [[92.72703183, 11.14550781], [92.7290101, 11.14234924], [92.72703183, 11.14550781]], [[92.72527766, 11.14138877], [92.72576058, 11.14415956], [92.72527766, 11.14138877]], [[92.65853405, 10.98580885], [92.66083705, 10.98159945], [92.65853405, 10.98580885]], [[92.22476792, 10.98255885], [92.2226032, 10.98301756], [92.22476792, 10.98255885]], [[92.61022055, 10.92937517], [92.61402655, 10.92720628], [92.61022055, 10.92937517]], [[92.50975347, 10.89485204], [92.50704134, 10.88980126], [92.46867573, 10.86718106], [92.42210245, 10.80253196], [92.37637818, 10.78228021], [92.38255036, 10.66973042], [92.39235735, 10.55708075], [92.43738651, 10.546875], [92.53817928, 10.53496194], [92.54069936, 10.60177791], [92.58873296, 10.67939305], [92.58341968, 10.75858176], [92.55749476, 10.85390985], [92.52843988, 10.86870885], [92.50975347, 10.89485204]], [[92.77888894, 9.24444437], [92.77685738, 9.23923624], [92.73627234, 9.21532238], [92.72222221, 9.14305556], [92.78944445, 9.11694443], [92.83012986, 9.13827825], [92.77819335, 9.25636268], [92.77888894, 9.24444437]], [[92.81166661, 9.12555552], [92.81166661, 9.12444437], [92.81166661, 9.12555552]], [[92.80380285, 9.12058616], [92.79989362, 9.11869931], [92.80380285, 9.12058616]], [[92.7942183, 9.11861098], [92.79333317, 9.11888885], [92.7942183, 9.11861098]], [[92.85379076, 8.81964636], [92.85734606, 8.81907213], [92.85379076, 8.81964636]], [[93.60688114, 8.58120406], [93.60803056, 8.57805562], [93.60688114, 8.58120406]], [[93.62812507, 8.48773241], [93.62470663, 8.48250163], [93.61648393, 8.43427396], [93.63969731, 8.46487773], [93.62693417, 8.52681565], [93.61340725, 8.57346451], [93.6205523, 8.52056706], [93.62812507, 8.48773241]], [[93.052019, 8.43846822], [93.05388165, 8.43942344], [93.052019, 8.43846822]], [[93.61339963, 8.48599243], [93.61208713, 8.48635638], [93.61339963, 8.48599243]], [[93.63383222, 8.39512336], [93.63492954, 8.39481151], [93.63383222, 8.39512336]], [[93.64544773, 8.39484191], [93.64427972, 8.39434195], [93.64544773, 8.39484191]], [[93.12552714, 8.35528111], [93.11939347, 8.34950304], [93.08378267, 8.28244185], [93.13240612, 8.21882534], [93.19168043, 8.19386494], [93.12647796, 8.27606905], [93.13178623, 8.34842956], [93.12552714, 8.35528111]], [[93.22805977, 8.26171875], [93.22317672, 8.25862765], [93.23806453, 8.26243043], [93.22805977, 8.26171875]], [[93.515625, 8.22963154], [93.51316166, 8.22794342], [93.45396864, 8.16831994], [93.46873295, 8.10238063], [93.48572195, 8.05107152], [93.51453042, 8.08393645], [93.51399612, 8.04993415], [93.48573756, 8.0450232], [93.50663066, 8.01309395], [93.53061104, 8.04852533], [93.54861367, 8.08468175], [93.50814855, 8.15635645], [93.52418125, 8.17388535], [93.53011024, 8.23152447], [93.515625, 8.22963154]], [[93.56469631, 8.11361563], [93.57050145, 8.10594261], [93.58123386, 8.07353997], [93.60119915, 8.04933918], [93.57266152, 8.12408137], [93.56469631, 8.11361563]], [[93.54529643, 8.0281049], [93.54327178, 8.02512646], [93.53011513, 8.02351165], [93.50736356, 7.98448694], [93.57540345, 7.92933714], [93.58195615, 7.97541845], [93.54529643, 8.0281049]], [[93.46554995, 7.92802203], [93.46515203, 7.92927885], [93.40579152, 8.00351012], [93.34731936, 8.01654696], [93.3327527, 7.92523503], [93.35160315, 7.93105304], [93.38004208, 7.88226366], [93.45113456, 7.88490427], [93.46554995, 7.92802203]], [[93.34187198, 7.90601504], [93.34161913, 7.90635121], [93.34187198, 7.90601504]], [[93.34019208, 7.91015625], [93.33962774, 7.91114855], [93.34019208, 7.91015625]], [[93.54013157, 7.51381207], [93.54248166, 7.51005626], [93.54013157, 7.51381207]], [[93.63025951, 7.47806215], [93.633008, 7.4755944], [93.63025951, 7.47806215]], [[93.64734638, 7.47687137], [93.64406061, 7.47420776], [93.64734638, 7.47687137]], [[93.71099806, 7.44504857], [93.70834255, 7.44342041], [93.7072705, 7.39385498], [93.63413966, 7.37272847], [93.63395607, 7.28324962], [93.67365766, 7.27106571], [93.74773955, 7.35477078], [93.71312726, 7.44421375], [93.71099806, 7.44504857]], [[93.76594663, 7.39414501], [93.77021945, 7.39386225], [93.76594663, 7.39414501]], [[93.84471536, 7.28608763], [93.8457334, 7.28577065], [93.84471536, 7.28608763]], [[93.84735751, 7.24361718], [93.84568822, 7.24026716], [93.81164861, 7.21406305], [93.77768123, 7.20967376], [93.73345196, 7.18726921], [93.67269516, 7.13762963], [93.65872288, 7.09106195], [93.66473472, 7.04402137], [93.66450298, 7.00446236], [93.73216653, 6.96735895], [93.75233352, 6.90743053], [93.78052115, 6.88870025], [93.79393244, 6.85102165], [93.80829585, 6.80599844], [93.82041132, 6.75579226], [93.87764025, 6.8037467], [93.90109396, 6.84043121], [93.90030766, 6.89665663], [93.93550706, 6.96288705], [93.94402552, 6.99258065], [93.91664791, 7.03125], [93.88807774, 7.08593154], [93.88345814, 7.18875515], [93.84816182, 7.23308921], [93.84735751, 7.24361718]], [[93.78861797, 6.85261035], [93.78772676, 6.85270464], [93.78861797, 6.85261035]], [[93.72153664, 7.21309638], [93.71362495, 7.22195876], [93.71981251, 7.20703125], [93.72153664, 7.21309638]], [[93.69211245, 7.40836775], [93.68901491, 7.40990758], [93.69211245, 7.40836775]]]]}}]}